start=new Date('2021-11-14T00:00:00.000Z').valueOf();
sats=[{"MEAN_MOTION_DOT":"-0.00006580","OBJECT_TYPE":"PAYLOAD","PERIOD":"95.595","TLE_LINE2":"2 46149  53.0536 175.3007 0001651  57.6672 302.4477 15.06350433 69953","ELEMENT_SET_NO":"999","ARG_OF_PERICENTER":"57.6672","GP_ID":"189710729","RA_OF_ASC_NODE":"175.3007","ECCENTRICITY":"0.00016510","FILE":"3214514","SITE":"AFETR","REF_FRAME":"TEME","REV_AT_EPOCH":"6995","BSTAR":"-0.00042379000000","MEAN_MOTION_DDOT":"0.0000000000000","APOAPSIS":"548.509","NORAD_CAT_ID":"46149","INCLINATION":"53.0536","LAUNCH_DATE":"2020-08-18","RCS_SIZE":"LARGE","SEMIMAJOR_AXIS":"6925.500","OBJECT_NAME":"STARLINK-1620","TIME_SYSTEM":"UTC","CENTER_NAME":"EARTH","DECAY_DATE":null,"EPHEMERIS_TYPE":"0","COUNTRY_CODE":"US","MEAN_MOTION":"15.06350433","MEAN_ELEMENT_THEORY":"SGP4","OBJECT_ID":"2020-057AJ","EPOCH":"2021-11-13T20:34:35.495328","MEAN_ANOMALY":"302.4477","TLE_LINE1":"1 46149U 20057AJ  21317.85735527 -.00006580  00000-0 -42379-3 0  9993","CLASSIFICATION_TYPE":"U","PERIAPSIS":"546.222"},{"MEAN_MOTION_DDOT":"0.0000000000000","APOAPSIS":"548.327","NORAD_CAT_ID":"46150","INCLINATION":"53.0532","REV_AT_EPOCH":"6841","BSTAR":"0.00002772800000","GP_ID":"189709477","MEAN_MOTION_DOT":"0.00000131","OBJECT_TYPE":"PAYLOAD","TLE_LINE2":"2 46150  53.0532 195.0160 0001559  77.2017 282.9147 15.06389064 68416","PERIOD":"95.593","ELEMENT_SET_NO":"999","ARG_OF_PERICENTER":"77.2017","SITE":"AFETR","FILE":"3214514","REF_FRAME":"TEME","RA_OF_ASC_NODE":"195.0160","ECCENTRICITY":"0.00015590","MEAN_ANOMALY":"282.9147","TLE_LINE1":"1 46150U 20057AK  21317.91817645  .00000131  00000-0  27728-4 0  9990","CLASSIFICATION_TYPE":"U","EPOCH":"2021-11-13T22:02:10.445280","PERIAPSIS":"546.167","SEMIMAJOR_AXIS":"6925.382","RCS_SIZE":"LARGE","OBJECT_NAME":"STARLINK-1629","LAUNCH_DATE":"2020-08-18","EPHEMERIS_TYPE":"0","COUNTRY_CODE":"US","MEAN_MOTION":"15.06389064","MEAN_ELEMENT_THEORY":"SGP4","OBJECT_ID":"2020-057AK","TIME_SYSTEM":"UTC","CENTER_NAME":"EARTH","DECAY_DATE":null},{"LAUNCH_DATE":"2020-08-18","OBJECT_NAME":"STARLINK-1631","RCS_SIZE":"LARGE","SEMIMAJOR_AXIS":"6925.351","CENTER_NAME":"EARTH","DECAY_DATE":null,"TIME_SYSTEM":"UTC","OBJECT_ID":"2020-057AL","COUNTRY_CODE":"US","EPHEMERIS_TYPE":"0","MEAN_MOTION":"15.06399074","MEAN_ELEMENT_THEORY":"SGP4","EPOCH":"2021-11-13T21:27:40.131072","TLE_LINE1":"1 46151U 20057AL  21317.89421448  .00000309  00000-0  39642-4 0  9995","CLASSIFICATION_TYPE":"U","MEAN_ANOMALY":"288.4160","PERIAPSIS":"546.060","PERIOD":"95.592","TLE_LINE2":"2 46151  53.0521 175.1353 0001670  71.7011 288.4160 15.06399074 68682","ARG_OF_PERICENTER":"71.7011","ELEMENT_SET_NO":"999","MEAN_MOTION_DOT":"0.00000309","OBJECT_TYPE":"PAYLOAD","GP_ID":"189709727","RA_OF_ASC_NODE":"175.1353","ECCENTRICITY":"0.00016700","SITE":"AFETR","FILE":"3214514","REF_FRAME":"TEME","BSTAR":"0.00003964200000","REV_AT_EPOCH":"6868","APOAPSIS":"548.373","NORAD_CAT_ID":"46151","INCLINATION":"53.0521","MEAN_MOTION_DDOT":"0.0000000000000"},{"PERIAPSIS":"546.124","TLE_LINE1":"1 46152U 20057AM  21317.94397133  .00000922  00000-0  80827-4 0  9997","CLASSIFICATION_TYPE":"U","MEAN_ANOMALY":"289.0947","EPOCH":"2021-11-13T22:39:19.122912","OBJECT_ID":"2020-057AM","COUNTRY_CODE":"US","EPHEMERIS_TYPE":"0","MEAN_MOTION":"15.06396234","MEAN_ELEMENT_THEORY":"SGP4","CENTER_NAME":"EARTH","DECAY_DATE":null,"TIME_SYSTEM":"UTC","OBJECT_NAME":"STARLINK-1634","SEMIMAJOR_AXIS":"6925.360","RCS_SIZE":"LARGE","LAUNCH_DATE":"2020-08-18","INCLINATION":"53.0541","APOAPSIS":"548.326","NORAD_CAT_ID":"46152","MEAN_MOTION_DDOT":"0.0000000000000","BSTAR":"0.00008082700000","REV_AT_EPOCH":"6841","FILE":"3214514","SITE":"AFETR","REF_FRAME":"TEME","RA_OF_ASC_NODE":"194.9071","ECCENTRICITY":"0.00015900","GP_ID":"189710979","TLE_LINE2":"2 46152  53.0541 194.9071 0001590  71.0214 289.0947 15.06396234 68416","PERIOD":"95.592","ELEMENT_SET_NO":"999","ARG_OF_PERICENTER":"71.0214","MEAN_MOTION_DOT":"0.00000922","OBJECT_TYPE":"PAYLOAD"},{"BSTAR":"0.00008616400000","REV_AT_EPOCH":"6868","APOAPSIS":"548.356","INCLINATION":"53.0541","NORAD_CAT_ID":"46153","MEAN_MOTION_DDOT":"0.0000000000000","TLE_LINE2":"2 46153  53.0541 175.0523 0001621  68.4922 291.6240 15.06393430 68689","PERIOD":"95.593","ELEMENT_SET_NO":"999","ARG_OF_PERICENTER":"68.4922","OBJECT_TYPE":"PAYLOAD","MEAN_MOTION_DOT":"0.00001002","GP_ID":"189711230","RA_OF_ASC_NODE":"175.0523","ECCENTRICITY":"0.00016210","FILE":"3214514","SITE":"AFETR","REF_FRAME":"TEME","EPOCH":"2021-11-13T21:54:12.394080","TLE_LINE1":"1 46153U 20057AN  21317.91264345  .00001002  00000-0  86164-4 0  9993","CLASSIFICATION_TYPE":"U","MEAN_ANOMALY":"291.6240","PERIAPSIS":"546.111","LAUNCH_DATE":"2020-08-18","OBJECT_NAME":"STARLINK-1636","RCS_SIZE":"LARGE","SEMIMAJOR_AXIS":"6925.369","CENTER_NAME":"EARTH","DECAY_DATE":null,"TIME_SYSTEM":"UTC","OBJECT_ID":"2020-057AN","COUNTRY_CODE":"US","MEAN_MOTION":"15.06393430","EPHEMERIS_TYPE":"0","MEAN_ELEMENT_THEORY":"SGP4"},{"BSTAR":"0.00013762000000","REV_AT_EPOCH":"6855","INCLINATION":"53.0534","APOAPSIS":"548.226","NORAD_CAT_ID":"46154","MEAN_MOTION_DDOT":"0.0000000000000","RA_OF_ASC_NODE":"185.0052","ECCENTRICITY":"0.00014910","FILE":"3214514","SITE":"AFETR","REF_FRAME":"TEME","PERIOD":"95.592","TLE_LINE2":"2 46154  53.0534 185.0052 0001491  71.8358 288.2794 15.06406679 68558","ARG_OF_PERICENTER":"71.8358","ELEMENT_SET_NO":"999","OBJECT_TYPE":"PAYLOAD","MEAN_MOTION_DOT":"0.00001769","GP_ID":"189711231","PERIAPSIS":"546.161","EPOCH":"2021-11-13T22:08:47.601024","TLE_LINE1":"1 46154U 20057AP  21317.92277316  .00001769  00000-0  13762-3 0  9990","CLASSIFICATION_TYPE":"U","MEAN_ANOMALY":"288.2794","CENTER_NAME":"EARTH","DECAY_DATE":null,"TIME_SYSTEM":"UTC","OBJECT_ID":"2020-057AP","COUNTRY_CODE":"US","MEAN_MOTION":"15.06406679","EPHEMERIS_TYPE":"0","MEAN_ELEMENT_THEORY":"SGP4","LAUNCH_DATE":"2020-08-18","OBJECT_NAME":"STARLINK-1642","RCS_SIZE":"LARGE","SEMIMAJOR_AXIS":"6925.328"},{"EPOCH":"2021-11-13T22:44:37.093920","CLASSIFICATION_TYPE":"U","TLE_LINE1":"1 46155U 20057AQ  21317.94765155  .00000390  00000-0  45041-4 0  9991","MEAN_ANOMALY":"288.1800","PERIAPSIS":"546.196","LAUNCH_DATE":"2020-08-18","OBJECT_NAME":"STARLINK-1667","SEMIMAJOR_AXIS":"6925.336","RCS_SIZE":"LARGE","DECAY_DATE":null,"CENTER_NAME":"EARTH","TIME_SYSTEM":"UTC","OBJECT_ID":"2020-057AQ","MEAN_ELEMENT_THEORY":"SGP4","MEAN_MOTION":"15.06403937","COUNTRY_CODE":"US","EPHEMERIS_TYPE":"0","BSTAR":"0.00004504100000","REV_AT_EPOCH":"7021","APOAPSIS":"548.207","NORAD_CAT_ID":"46155","INCLINATION":"53.0523","MEAN_MOTION_DDOT":"0.0000000000000","ELEMENT_SET_NO":"999","ARG_OF_PERICENTER":"71.9347","PERIOD":"95.592","TLE_LINE2":"2 46155  53.0523 154.8910 0001452  71.9347 288.1800 15.06403937 70217","MEAN_MOTION_DOT":"0.00000390","OBJECT_TYPE":"PAYLOAD","GP_ID":"189710228","ECCENTRICITY":"0.00014520","RA_OF_ASC_NODE":"154.8910","REF_FRAME":"TEME","FILE":"3214514","SITE":"AFETR"},{"TLE_LINE1":"1 46156U 20057AR  21317.87209634  .00002318  00000-0  17443-3 0  9995","CLASSIFICATION_TYPE":"U","MEAN_ANOMALY":"285.4118","EPOCH":"2021-11-13T20:55:49.123776","PERIAPSIS":"545.917","OBJECT_NAME":"STARLINK-1545","RCS_SIZE":"LARGE","SEMIMAJOR_AXIS":"6925.317","LAUNCH_DATE":"2020-08-18","OBJECT_ID":"2020-057AR","MEAN_MOTION":"15.06410314","COUNTRY_CODE":"US","EPHEMERIS_TYPE":"0","MEAN_ELEMENT_THEORY":"SGP4","CENTER_NAME":"EARTH","DECAY_DATE":null,"TIME_SYSTEM":"UTC","APOAPSIS":"548.447","INCLINATION":"53.0519","NORAD_CAT_ID":"46156","MEAN_MOTION_DDOT":"0.0000000000000","BSTAR":"0.00017443000000","REV_AT_EPOCH":"6993","GP_ID":"189710479","TLE_LINE2":"2 46156  53.0519 175.2319 0001827  74.7073 285.4118 15.06410314 69932","PERIOD":"95.591","ARG_OF_PERICENTER":"74.7073","ELEMENT_SET_NO":"999","OBJECT_TYPE":"PAYLOAD","MEAN_MOTION_DOT":"0.00002318","SITE":"AFETR","FILE":"3214514","REF_FRAME":"TEME","ECCENTRICITY":"0.00018270","RA_OF_ASC_NODE":"175.2319"},{"REV_AT_EPOCH":"6896","BSTAR":"-0.00008615800000","MEAN_MOTION_DDOT":"0.0000000000000","APOAPSIS":"548.256","NORAD_CAT_ID":"46157","INCLINATION":"53.0543","MEAN_MOTION_DOT":"-0.00001564","OBJECT_TYPE":"PAYLOAD","PERIOD":"95.592","TLE_LINE2":"2 46157  53.0543 155.2777 0001491  79.8995 280.2162 15.06396874 68960","ELEMENT_SET_NO":"999","ARG_OF_PERICENTER":"79.8995","GP_ID":"189712984","RA_OF_ASC_NODE":"155.2777","ECCENTRICITY":"0.00014910","SITE":"AFETR","FILE":"3214514","REF_FRAME":"TEME","EPOCH":"2021-11-13T20:37:15.529728","MEAN_ANOMALY":"280.2162","TLE_LINE1":"1 46157U 20057AS  21317.85920752 -.00001564  00000-0 -86158-4 0  9999","CLASSIFICATION_TYPE":"U","PERIAPSIS":"546.191","LAUNCH_DATE":"2020-08-18","RCS_SIZE":"LARGE","SEMIMAJOR_AXIS":"6925.358","OBJECT_NAME":"STARLINK-1587","TIME_SYSTEM":"UTC","CENTER_NAME":"EARTH","DECAY_DATE":null,"EPHEMERIS_TYPE":"0","COUNTRY_CODE":"US","MEAN_MOTION":"15.06396874","MEAN_ELEMENT_THEORY":"SGP4","OBJECT_ID":"2020-057AS"},{"PERIAPSIS":"546.118","EPOCH":"2021-11-13T20:31:56.392320","MEAN_ANOMALY":"282.1826","CLASSIFICATION_TYPE":"U","TLE_LINE1":"1 46158U 20057AT  21317.85551380  .00000264  00000-0  36653-4 0  9996","TIME_SYSTEM":"UTC","DECAY_DATE":null,"CENTER_NAME":"EARTH","MEAN_ELEMENT_THEORY":"SGP4","EPHEMERIS_TYPE":"0","COUNTRY_CODE":"US","MEAN_MOTION":"15.06395090","OBJECT_ID":"2020-057AT","LAUNCH_DATE":"2020-08-18","RCS_SIZE":"LARGE","SEMIMAJOR_AXIS":"6925.364","OBJECT_NAME":"STARLINK-1589","REV_AT_EPOCH":"7022","BSTAR":"0.00003665300000","MEAN_MOTION_DDOT":"0.0000000000000","APOAPSIS":"548.339","INCLINATION":"53.0537","NORAD_CAT_ID":"46158","ECCENTRICITY":"0.00016040","RA_OF_ASC_NODE":"155.3056","REF_FRAME":"TEME","SITE":"AFETR","FILE":"3214514","OBJECT_TYPE":"PAYLOAD","MEAN_MOTION_DOT":"0.00000264","ELEMENT_SET_NO":"999","ARG_OF_PERICENTER":"77.9343","PERIOD":"95.592","TLE_LINE2":"2 46158  53.0537 155.3056 0001604  77.9343 282.1826 15.06395090 70226","GP_ID":"189711732"}];
